{"type":"FeatureCollection","features":[{"type":"Feature","id":"37","geometry":{"type":"Point","coordinates":[55.7409794,24.2412888]},"properties":{"branch_id":37,"branch_name":"Al Ain","official_city":"Abu Dhabi","official_address":"Villa 14, Hamdan Bin Mohammad St. , Al Markaniyah, Al Ain - Abu Dhabi","google_place_id":"ChIJaVP-IbGtij4REpj8CjkEfdo","google_maps_url":"https://maps.google.com/?cid=15743744515401095186&g_mp=CiVnb29nbGUubWFwcy5wbGFjZXMudjEuUGxhY2VzLkdldFBsYWNlEAIYBCAA","branch_rating":4.7,"branch_review_count":1325,"bayesian_adjusted_rating":4.67,"catchment_area_km2":108.6525,"observed_direct_competitor_count":68,"observed_direct_density_per_km2":0.6258,"competitor_rating_weighted_by_reviews":4.5271,"branch_rating_gap_vs_competitor_weighted":0.1729,"self_overlap_pct":0.0,"unique_coverage_pct":100.0,"customer_signal_score":67.5,"competitive_position_score":75.42,"network_value_score":91.67,"catchment_reach_score":91.67,"branch_health_score":79.15,"recommendation":"PROTECT","decision_meaning":"Strong external-market and network-value signal; prioritize retention.","confidence_score":80,"confidence_level":"HIGH","main_positive_drivers":"unique network coverage (+12.5); position versus local competitors (+6.4)","main_negative_drivers":"no material below-network signal","recommendation_explanation":"PROTECT: strongest evidence is unique network coverage (+12.5); position versus local competitors (+6.4).","decision_limitations":"External-market decision support only. Revenue, profit, rent, utilization, customer origins and exhaustive competitor census are unavailable.","source":"Google Places API (New)","retrieved_at":"2026-09-02T15:15:30+00:00"}},{"type":"Feature","id":"48","geometry":{"type":"Point","coordinates":[55.9095698,25.7554573]},"properties":{"branch_id":48,"branch_name":"Ras Al Khaimah","official_city":"Ras Al Khaimah.","official_address":"Villa 3, Sheikh Rashid Bin Saeed Al Maktoum Rd, Beside Al Neem City Center, Al Dhaith, Ras Al Khaimah.","google_place_id":"ChIJSU1oGll19j4RCktPt_Pr5o0","google_maps_url":"https://maps.google.com/?cid=10225119435976297226&g_mp=Cidnb29nbGUubWFwcy5wbGFjZXMudjEuUGxhY2VzLlNlYXJjaFRleHQQAhgEIAA","branch_rating":4.6,"branch_review_count":769,"bayesian_adjusted_rating":4.6,"catchment_area_km2":82.1295,"observed_direct_competitor_count":73,"observed_direct_density_per_km2":0.8888,"competitor_rating_weighted_by_reviews":4.3543,"branch_rating_gap_vs_competitor_weighted":0.2457,"self_overlap_pct":0.0,"unique_coverage_pct":100.0,"customer_signal_score":51.46,"competitive_position_score":76.25,"network_value_score":91.67,"catchment_reach_score":70.83,"branch_health_score":71.66,"recommendation":"PROTECT","decision_meaning":"Strong external-market and network-value signal; prioritize retention.","confidence_score":80,"confidence_level":"HIGH","main_positive_drivers":"unique network coverage (+12.5); position versus local competitors (+6.6)","main_negative_drivers":"no material below-network signal","recommendation_explanation":"PROTECT: strongest evidence is unique network coverage (+12.5); position versus local competitors (+6.6).","decision_limitations":"External-market decision support only. Revenue, profit, rent, utilization, customer origins and exhaustive competitor census are unavailable.","source":"Google Places API (New)","retrieved_at":"2026-09-02T15:15:30+00:00"}},{"type":"Feature","id":"51","geometry":{"type":"Point","coordinates":[56.32583349999999,25.1203258]},"properties":{"branch_id":51,"branch_name":"Al Taif Mall","official_city":"Fujairah","official_address":"Shop: G/F 13, Al Taif Mall, Al Taif Mall, Fujairah.","google_place_id":"ChIJ0ePl4Sz59D4RPDea70PHVSs","google_maps_url":"https://maps.google.com/?cid=3122621011247904572&g_mp=CiVnb29nbGUubWFwcy5wbGFjZXMudjEuUGxhY2VzLkdldFBsYWNlEAIYBCAA","branch_rating":4.7,"branch_review_count":495,"bayesian_adjusted_rating":4.64,"catchment_area_km2":59.8072,"observed_direct_competitor_count":130,"observed_direct_density_per_km2":2.1737,"competitor_rating_weighted_by_reviews":4.5348,"branch_rating_gap_vs_competitor_weighted":0.1652,"self_overlap_pct":0.0,"unique_coverage_pct":100.0,"customer_signal_score":75.73,"competitive_position_score":42.29,"network_value_score":91.67,"catchment_reach_score":29.17,"branch_health_score":67.49,"recommendation":"PROTECT","decision_meaning":"Strong external-market and network-value signal; prioritize retention.","confidence_score":80,"confidence_level":"HIGH","main_positive_drivers":"unique network coverage (+12.5); customer review signal (+9.0)","main_negative_drivers":"10-minute catchment reach (-2.1); position versus local competitors (-1.9)","recommendation_explanation":"PROTECT: strongest evidence is unique network coverage (+12.5); customer review signal (+9.0).","decision_limitations":"External-market decision support only. Revenue, profit, rent, utilization, customer origins and exhaustive competitor census are unavailable.","source":"Google Places API (New)","retrieved_at":"2026-09-02T15:15:30+00:00"}},{"type":"Feature","id":"39","geometry":{"type":"Point","coordinates":[54.73979970000001,24.4583082]},"properties":{"branch_id":39,"branch_name":"Al Falah","official_city":"Abu Dhabi","official_address":"Al Falah Village 4, 1D Branch, Abu Dhabi","google_place_id":"ChIJhST-PqhLXj4R4Ns1HCNIcjA","google_maps_url":"https://maps.google.com/?cid=3490931976799902688&g_mp=Cidnb29nbGUubWFwcy5wbGFjZXMudjEuUGxhY2VzLlNlYXJjaFRleHQQAhgEIAA","branch_rating":4.6,"branch_review_count":948,"bayesian_adjusted_rating":4.6,"catchment_area_km2":34.8696,"observed_direct_competitor_count":37,"observed_direct_density_per_km2":1.0611,"competitor_rating_weighted_by_reviews":4.2132,"branch_rating_gap_vs_competitor_weighted":0.3868,"self_overlap_pct":0.0,"unique_coverage_pct":100.0,"customer_signal_score":48.75,"competitive_position_score":81.04,"network_value_score":91.67,"catchment_reach_score":12.5,"branch_health_score":66.07,"recommendation":"PROTECT","decision_meaning":"Strong external-market and network-value signal; prioritize retention.","confidence_score":80,"confidence_level":"HIGH","main_positive_drivers":"unique network coverage (+12.5); position versus local competitors (+7.8)","main_negative_drivers":"10-minute catchment reach (-3.8); customer review signal (-0.4)","recommendation_explanation":"PROTECT: strongest evidence is unique network coverage (+12.5); position versus local competitors (+7.8).","decision_limitations":"External-market decision support only. Revenue, profit, rent, utilization, customer origins and exhaustive competitor census are unavailable.","source":"Google Places API (New)","retrieved_at":"2026-09-02T15:15:30+00:00"}},{"type":"Feature","id":"46","geometry":{"type":"Point","coordinates":[53.714108,23.628053]},"properties":{"branch_id":46,"branch_name":"Al Dhafra Branch","official_city":"Abu Dhabi","official_address":"Al Dhafra Walk, Liwa - Tarif Rd - Zayed City - Abu Dhabi","google_place_id":"ChIJNxX7ddBnZz4RvodXaYBSH6Q","google_maps_url":"https://maps.google.com/?cid=11826261857974847422&g_mp=CiVnb29nbGUubWFwcy5wbGFjZXMudjEuUGxhY2VzLkdldFBsYWNlEAIYBCAA","branch_rating":4.5,"branch_review_count":358,"bayesian_adjusted_rating":4.57,"catchment_area_km2":69.9281,"observed_direct_competitor_count":26,"observed_direct_density_per_km2":0.3718,"competitor_rating_weighted_by_reviews":4.2465,"branch_rating_gap_vs_competitor_weighted":0.2535,"self_overlap_pct":0.0,"unique_coverage_pct":100.0,"customer_signal_score":26.77,"competitive_position_score":89.17,"network_value_score":91.67,"catchment_reach_score":54.17,"branch_health_score":64.58,"recommendation":"PROTECT","decision_meaning":"Strong external-market and network-value signal; prioritize retention.","confidence_score":80,"confidence_level":"HIGH","main_positive_drivers":"unique network coverage (+12.5); position versus local competitors (+9.8)","main_negative_drivers":"customer review signal (-8.1)","recommendation_explanation":"PROTECT: strongest evidence is unique network coverage (+12.5); position versus local competitors (+9.8).","decision_limitations":"External-market decision support only. Revenue, profit, rent, utilization, customer origins and exhaustive competitor census are unavailable.","source":"Google Places API (New)","retrieved_at":"2026-09-02T15:15:30+00:00"}},{"type":"Feature","id":"49","geometry":{"type":"Point","coordinates":[55.4294728,25.3306234]},"properties":{"branch_id":49,"branch_name":"Zawaya Walk","official_city":"Sharjah","official_address":"Shop 32 & 33 - Zawaya Walk - University City Rd - Al Shahba - Sharjah","google_place_id":"ChIJNY29cDNZXz4RT5H-KSCWfCo","google_maps_url":"https://maps.google.com/?cid=3061486911592763727&g_mp=CiVnb29nbGUubWFwcy5wbGFjZXMudjEuUGxhY2VzLkdldFBsYWNlEAIYBCAA","branch_rating":4.7,"branch_review_count":601,"bayesian_adjusted_rating":4.65,"catchment_area_km2":114.6085,"observed_direct_competitor_count":212,"observed_direct_density_per_km2":1.8498,"competitor_rating_weighted_by_reviews":4.5257,"branch_rating_gap_vs_competitor_weighted":0.1743,"self_overlap_pct":48.2811,"unique_coverage_pct":51.7189,"customer_signal_score":79.79,"competitive_position_score":51.88,"network_value_score":45.83,"catchment_reach_score":95.83,"branch_health_score":64.23,"recommendation":"PROTECT","decision_meaning":"Strong external-market and network-value signal; prioritize retention.","confidence_score":80,"confidence_level":"HIGH","main_positive_drivers":"customer review signal (+10.4); 10-minute catchment reach (+4.6)","main_negative_drivers":"unique network coverage (-1.3)","recommendation_explanation":"PROTECT: strongest evidence is customer review signal (+10.4); 10-minute catchment reach (+4.6).","decision_limitations":"External-market decision support only. Revenue, profit, rent, utilization, customer origins and exhaustive competitor census are unavailable.","source":"Google Places API (New)","retrieved_at":"2026-09-02T15:15:30+00:00"}},{"type":"Feature","id":"35","geometry":{"type":"Point","coordinates":[54.5521412,24.4317088]},"properties":{"branch_id":35,"branch_name":"Shahama","official_city":"Abu Dhabi","official_address":"Abu Dhabi – Al Shahama Rd , Abu Dhabi","google_place_id":"ChIJh9wAonFPXj4R6P2_rlevv90","google_maps_url":"https://maps.google.com/?cid=15978682794062642664&g_mp=CiVnb29nbGUubWFwcy5wbGFjZXMudjEuUGxhY2VzLkdldFBsYWNlEAIYBCAA","branch_rating":4.6,"branch_review_count":746,"bayesian_adjusted_rating":4.6,"catchment_area_km2":61.6852,"observed_direct_competitor_count":55,"observed_direct_density_per_km2":0.8916,"competitor_rating_weighted_by_reviews":4.257,"branch_rating_gap_vs_competitor_weighted":0.343,"self_overlap_pct":10.9414,"unique_coverage_pct":89.0586,"customer_signal_score":52.08,"competitive_position_score":85.62,"network_value_score":66.67,"catchment_reach_score":33.33,"branch_health_score":62.97,"recommendation":"PROTECT","decision_meaning":"Strong external-market and network-value signal; prioritize retention.","confidence_score":80,"confidence_level":"HIGH","main_positive_drivers":"position versus local competitors (+8.9); unique network coverage (+5.0)","main_negative_drivers":"10-minute catchment reach (-1.7)","recommendation_explanation":"PROTECT: strongest evidence is position versus local competitors (+8.9); unique network coverage (+5.0).","decision_limitations":"External-market decision support only. Revenue, profit, rent, utilization, customer origins and exhaustive competitor census are unavailable.","source":"Google Places API (New)","retrieved_at":"2026-09-02T15:15:30+00:00"}},{"type":"Feature","id":"31","geometry":{"type":"Point","coordinates":[55.3862638,25.2004324]},"properties":{"branch_id":31,"branch_name":"Nad Al Sheba","official_city":"Dubai","official_address":"Nad Al Sheba Mall, Nad Al Sheba 3 - Dubai, Shop No. L2-048 - Dubai","google_place_id":"ChIJR6DuRulnXz4RsewBFpNYmzQ","google_maps_url":"https://maps.google.com/?cid=3790720900115066033&g_mp=Cidnb29nbGUubWFwcy5wbGFjZXMudjEuUGxhY2VzLlNlYXJjaFRleHQQAhgEIAA","branch_rating":4.6,"branch_review_count":627,"bayesian_adjusted_rating":4.6,"catchment_area_km2":69.8739,"observed_direct_competitor_count":52,"observed_direct_density_per_km2":0.7442,"competitor_rating_weighted_by_reviews":4.6244,"branch_rating_gap_vs_competitor_weighted":-0.0244,"self_overlap_pct":7.2871,"unique_coverage_pct":92.7129,"customer_signal_score":61.98,"competitive_position_score":48.12,"network_value_score":75.0,"catchment_reach_score":50.0,"branch_health_score":61.22,"recommendation":"HOLD","decision_meaning":"Maintain and monitor; evidence is mixed or not decisive.","confidence_score":80,"confidence_level":"HIGH","main_positive_drivers":"unique network coverage (+7.5); customer review signal (+4.2)","main_negative_drivers":"position versus local competitors (-0.5)","recommendation_explanation":"HOLD: evidence is mixed. Strengths: unique network coverage (+7.5); customer review signal (+4.2). Constraints: position versus local competitors (-0.5).","decision_limitations":"External-market decision support only. Revenue, profit, rent, utilization, customer origins and exhaustive competitor census are unavailable.","source":"Google Places API (New)","retrieved_at":"2026-09-02T15:15:30+00:00"}},{"type":"Feature","id":"32","geometry":{"type":"Point","coordinates":[55.1644674,25.0410563]},"properties":{"branch_id":32,"branch_name":"Jumeirah Park","official_city":"Dubai","official_address":"Shop 17 & 18, Jumeirah Park Club House - Jumeirah Park - Dubai","google_place_id":"ChIJ-0P7Jf1tXz4Rje7-0YFcM3Q","google_maps_url":"https://maps.google.com/?cid=8373137844855565965&g_mp=CiVnb29nbGUubWFwcy5wbGFjZXMudjEuUGxhY2VzLkdldFBsYWNlEAIYBCAA","branch_rating":4.8,"branch_review_count":440,"bayesian_adjusted_rating":4.68,"catchment_area_km2":56.2511,"observed_direct_competitor_count":85,"observed_direct_density_per_km2":1.5111,"competitor_rating_weighted_by_reviews":4.642,"branch_rating_gap_vs_competitor_weighted":0.158,"self_overlap_pct":17.1751,"unique_coverage_pct":82.8249,"customer_signal_score":83.85,"competitive_position_score":46.88,"network_value_score":58.33,"catchment_reach_score":20.83,"branch_health_score":60.65,"recommendation":"HOLD","decision_meaning":"Maintain and monitor; evidence is mixed or not decisive.","confidence_score":80,"confidence_level":"HIGH","main_positive_drivers":"customer review signal (+11.8); unique network coverage (+2.5)","main_negative_drivers":"10-minute catchment reach (-2.9); position versus local competitors (-0.8)","recommendation_explanation":"HOLD: evidence is mixed. Strengths: customer review signal (+11.8); unique network coverage (+2.5). Constraints: 10-minute catchment reach (-2.9); position versus local competitors (-0.8).","decision_limitations":"External-market decision support only. Revenue, profit, rent, utilization, customer origins and exhaustive competitor census are unavailable.","source":"Google Places API (New)","retrieved_at":"2026-09-02T15:15:30+00:00"}},{"type":"Feature","id":"36","geometry":{"type":"Point","coordinates":[54.6109348,24.3063204]},"properties":{"branch_id":36,"branch_name":"Baniyas","official_city":"Abu Dhabi","official_address":"Villa D, Baniyas East 8, Opposite to Lulu Hypermarket, Abu Dhabi.","google_place_id":"ChIJ5ch6Hag3Xj4RlU_4s1p7o8s","google_maps_url":"https://maps.google.com/?cid=14673707640399875989&g_mp=Cidnb29nbGUubWFwcy5wbGFjZXMudjEuUGxhY2VzLlNlYXJjaFRleHQQAhgEIAA","branch_rating":4.6,"branch_review_count":693,"bayesian_adjusted_rating":4.6,"catchment_area_km2":102.2855,"observed_direct_competitor_count":66,"observed_direct_density_per_km2":0.6453,"competitor_rating_weighted_by_reviews":4.2857,"branch_rating_gap_vs_competitor_weighted":0.3143,"self_overlap_pct":52.6276,"unique_coverage_pct":47.3724,"customer_signal_score":50.83,"competitive_position_score":87.5,"network_value_score":37.5,"catchment_reach_score":87.5,"branch_health_score":59.67,"recommendation":"HOLD","decision_meaning":"Maintain and monitor; evidence is mixed or not decisive.","confidence_score":80,"confidence_level":"HIGH","main_positive_drivers":"position versus local competitors (+9.4); 10-minute catchment reach (+3.8)","main_negative_drivers":"unique network coverage (-3.8)","recommendation_explanation":"HOLD: evidence is mixed. Strengths: position versus local competitors (+9.4); 10-minute catchment reach (+3.8). Constraints: unique network coverage (-3.8).","decision_limitations":"External-market decision support only. Revenue, profit, rent, utilization, customer origins and exhaustive competitor census are unavailable.","source":"Google Places API (New)","retrieved_at":"2026-09-02T15:15:30+00:00"}},{"type":"Feature","id":"43","geometry":{"type":"Point","coordinates":[54.4694026,24.4255478]},"properties":{"branch_id":43,"branch_name":"Ministries Complex","official_city":"Abu Dhabi","official_address":"Shop No - 3, ICT Building, Khalifa Park (Ministry Area), Beside Union National Bank, Abu Dhabi, UAE","google_place_id":"ChIJRfTVvZVDXj4RZZRKmMGM9cs","google_maps_url":"https://maps.google.com/?cid=14696807722105082981&g_mp=CiVnb29nbGUubWFwcy5wbGFjZXMudjEuUGxhY2VzLkdldFBsYWNlEAIYBCAA","branch_rating":4.9,"branch_review_count":1214,"bayesian_adjusted_rating":4.79,"catchment_area_km2":70.6779,"observed_direct_competitor_count":113,"observed_direct_density_per_km2":1.5988,"competitor_rating_weighted_by_reviews":4.5702,"branch_rating_gap_vs_competitor_weighted":0.3298,"self_overlap_pct":95.045,"unique_coverage_pct":4.955,"customer_signal_score":91.25,"competitive_position_score":68.33,"network_value_score":12.5,"catchment_reach_score":58.33,"branch_health_score":58.6,"recommendation":"HOLD","decision_meaning":"Maintain and monitor; evidence is mixed or not decisive.","confidence_score":80,"confidence_level":"HIGH","main_positive_drivers":"customer review signal (+14.4); position versus local competitors (+4.6)","main_negative_drivers":"unique network coverage (-11.2)","recommendation_explanation":"HOLD: evidence is mixed. Strengths: customer review signal (+14.4); position versus local competitors (+4.6). Constraints: unique network coverage (-11.2).","decision_limitations":"External-market decision support only. Revenue, profit, rent, utilization, customer origins and exhaustive competitor census are unavailable.","source":"Google Places API (New)","retrieved_at":"2026-09-02T15:15:30+00:00"}},{"type":"Feature","id":"30","geometry":{"type":"Point","coordinates":[55.2145715,25.1136617]},"properties":{"branch_id":30,"branch_name":"Al Barsha","official_city":"Dubai","official_address":"Shop 1,2 - 3 Umm Suqeim St - Al Barsha 2 - Dubai","google_place_id":"ChIJ692_u5NrXz4RTD99fc17TzU","google_maps_url":"https://maps.google.com/?cid=3841425129674194764&g_mp=CiVnb29nbGUubWFwcy5wbGFjZXMudjEuUGxhY2VzLkdldFBsYWNlEAIYBCAA","branch_rating":4.6,"branch_review_count":742,"bayesian_adjusted_rating":4.6,"catchment_area_km2":93.2974,"observed_direct_competitor_count":230,"observed_direct_density_per_km2":2.4652,"competitor_rating_weighted_by_reviews":4.604,"branch_rating_gap_vs_competitor_weighted":-0.004,"self_overlap_pct":15.0247,"unique_coverage_pct":84.9753,"customer_signal_score":51.15,"competitive_position_score":30.0,"network_value_score":62.5,"catchment_reach_score":83.33,"branch_health_score":52.48,"recommendation":"HOLD","decision_meaning":"Maintain and monitor; evidence is mixed or not decisive.","confidence_score":80,"confidence_level":"HIGH","main_positive_drivers":"unique network coverage (+3.8); 10-minute catchment reach (+3.3)","main_negative_drivers":"position versus local competitors (-5.0)","recommendation_explanation":"HOLD: evidence is mixed. Strengths: unique network coverage (+3.8); 10-minute catchment reach (+3.3). Constraints: position versus local competitors (-5.0).","decision_limitations":"External-market decision support only. Revenue, profit, rent, utilization, customer origins and exhaustive competitor census are unavailable.","source":"Google Places API (New)","retrieved_at":"2026-09-02T15:15:30+00:00"}},{"type":"Feature","id":"42","geometry":{"type":"Point","coordinates":[54.6238561,24.3481854]},"properties":{"branch_id":42,"branch_name":"Shakhbout City","official_city":"Abu Dhabi","official_address":"Bedashing Beauty Lounge, Shakhbout City 3, Abu Dhabi, UAE","google_place_id":"ChIJDbcz2A9tXz4RnqvVPtIP15c","google_maps_url":"https://maps.google.com/?cid=10941231215391648670&g_mp=CiVnb29nbGUubWFwcy5wbGFjZXMudjEuUGxhY2VzLkdldFBsYWNlEAIYBCAA","branch_rating":4.5,"branch_review_count":1267,"bayesian_adjusted_rating":4.54,"catchment_area_km2":129.9432,"observed_direct_competitor_count":70,"observed_direct_density_per_km2":0.5387,"competitor_rating_weighted_by_reviews":4.3087,"branch_rating_gap_vs_competitor_weighted":0.1913,"self_overlap_pct":41.1059,"unique_coverage_pct":58.8941,"customer_signal_score":17.71,"competitive_position_score":82.29,"network_value_score":50.0,"catchment_reach_score":100.0,"branch_health_score":51.77,"recommendation":"HOLD","decision_meaning":"Maintain and monitor; evidence is mixed or not decisive.","confidence_score":80,"confidence_level":"HIGH","main_positive_drivers":"position versus local competitors (+8.1); 10-minute catchment reach (+5.0)","main_negative_drivers":"customer review signal (-11.3)","recommendation_explanation":"HOLD: evidence is mixed. Strengths: position versus local competitors (+8.1); 10-minute catchment reach (+5.0). Constraints: customer review signal (-11.3).","decision_limitations":"External-market decision support only. Revenue, profit, rent, utilization, customer origins and exhaustive competitor census are unavailable.","source":"Google Places API (New)","retrieved_at":"2026-09-02T15:15:30+00:00"}},{"type":"Feature","id":"47","geometry":{"type":"Point","coordinates":[54.627391,24.4539811]},"properties":{"branch_id":47,"branch_name":"Zayed International Airport","official_city":"Abu Dhabi","official_address":"International Airport - Midfield Terminal, Abu Dhabi","google_place_id":"ChIJD4c_XalPXj4RdqRn4Ir54qU","google_maps_url":"https://maps.google.com/?cid=11953390735860409462&g_mp=CiVnb29nbGUubWFwcy5wbGFjZXMudjEuUGxhY2VzLkdldFBsYWNlEAIYBCAA","branch_rating":4.9,"branch_review_count":534,"bayesian_adjusted_rating":4.73,"catchment_area_km2":26.9405,"observed_direct_competitor_count":27,"observed_direct_density_per_km2":1.0022,"competitor_rating_weighted_by_reviews":4.7308,"branch_rating_gap_vs_competitor_weighted":0.1692,"self_overlap_pct":97.8997,"unique_coverage_pct":2.1003,"customer_signal_score":92.71,"competitive_position_score":59.58,"network_value_score":4.17,"catchment_reach_score":4.17,"branch_health_score":49.01,"recommendation":"HOLD","decision_meaning":"Maintain and monitor; evidence is mixed or not decisive.","confidence_score":80,"confidence_level":"HIGH","main_positive_drivers":"customer review signal (+14.9); position versus local competitors (+2.4)","main_negative_drivers":"unique network coverage (-13.8); 10-minute catchment reach (-4.6)","recommendation_explanation":"HOLD: evidence is mixed. Strengths: customer review signal (+14.9); position versus local competitors (+2.4). Constraints: unique network coverage (-13.8); 10-minute catchment reach (-4.6).","decision_limitations":"External-market decision support only. Revenue, profit, rent, utilization, customer origins and exhaustive competitor census are unavailable.","source":"Google Places API (New)","retrieved_at":"2026-09-02T15:15:30+00:00"}},{"type":"Feature","id":"28","geometry":{"type":"Point","coordinates":[55.26383744697417,25.201991012471893]},"properties":{"branch_id":28,"branch_name":"City Walk","official_city":"Dubai","official_address":"18A-06 Al Raha Street, City Walk","google_place_id":"ChIJgarf82RCXz4Rk5W7_Oh9ZCM","google_maps_url":"https://maps.google.com/?cid=2550301728624579987&g_mp=CiVnb29nbGUubWFwcy5wbGFjZXMudjEuUGxhY2VzLkdldFBsYWNlEAIYBCAA","branch_rating":4.6,"branch_review_count":855,"bayesian_adjusted_rating":4.6,"catchment_area_km2":63.3815,"observed_direct_competitor_count":58,"observed_direct_density_per_km2":0.9151,"competitor_rating_weighted_by_reviews":4.6946,"branch_rating_gap_vs_competitor_weighted":-0.0946,"self_overlap_pct":7.0284,"unique_coverage_pct":92.9716,"customer_signal_score":40.0,"competitive_position_score":30.0,"network_value_score":79.17,"catchment_reach_score":37.5,"branch_health_score":49.0,"recommendation":"HOLD","decision_meaning":"Maintain and monitor; evidence is mixed or not decisive.","confidence_score":80,"confidence_level":"HIGH","main_positive_drivers":"unique network coverage (+8.7)","main_negative_drivers":"position versus local competitors (-5.0); customer review signal (-3.5)","recommendation_explanation":"HOLD: evidence is mixed. Strengths: unique network coverage (+8.7). Constraints: position versus local competitors (-5.0); customer review signal (-3.5).","decision_limitations":"External-market decision support only. Revenue, profit, rent, utilization, customer origins and exhaustive competitor census are unavailable.","source":"Google Places API (New)","retrieved_at":"2026-09-02T15:15:30+00:00"}},{"type":"Feature","id":"38","geometry":{"type":"Point","coordinates":[54.3924925,24.4724285]},"properties":{"branch_id":38,"branch_name":"Delma","official_city":"Abu Dhabi","official_address":"Shop 1 & 2 Kim Tower, Delma St (Al Nahayan Area), Abu Dhabi, UAE","google_place_id":"ChIJ_Vu7UilmXj4R0AsGTzHwkaU","google_maps_url":"https://maps.google.com/?cid=11930580982451014608&g_mp=CiVnb29nbGUubWFwcy5wbGFjZXMudjEuUGxhY2VzLkdldFBsYWNlEAIYBCAA","branch_rating":4.6,"branch_review_count":671,"bayesian_adjusted_rating":4.6,"catchment_area_km2":92.5493,"observed_direct_competitor_count":144,"observed_direct_density_per_km2":1.5559,"competitor_rating_weighted_by_reviews":4.6182,"branch_rating_gap_vs_competitor_weighted":-0.0182,"self_overlap_pct":88.0304,"unique_coverage_pct":11.9696,"customer_signal_score":67.08,"competitive_position_score":31.88,"network_value_score":25.0,"catchment_reach_score":79.17,"branch_health_score":46.86,"recommendation":"HOLD","decision_meaning":"Maintain and monitor; evidence is mixed or not decisive.","confidence_score":80,"confidence_level":"HIGH","main_positive_drivers":"customer review signal (+6.0); 10-minute catchment reach (+2.9)","main_negative_drivers":"unique network coverage (-7.5); position versus local competitors (-4.5)","recommendation_explanation":"HOLD: evidence is mixed. Strengths: customer review signal (+6.0); 10-minute catchment reach (+2.9). Constraints: unique network coverage (-7.5); position versus local competitors (-4.5).","decision_limitations":"External-market decision support only. Revenue, profit, rent, utilization, customer origins and exhaustive competitor census are unavailable.","source":"Google Places API (New)","retrieved_at":"2026-09-02T15:15:30+00:00"}},{"type":"Feature","id":"52","geometry":{"type":"Point","coordinates":[54.625432,24.4995864]},"properties":{"branch_id":52,"branch_name":"Noya Plaza","official_city":"Abu Dhabi","official_address":"Noya Plaza, East Yas - G 22 - Yas Island - YN7","google_place_id":"ChIJ8ZtA3AhPXj4R9bv4hORDLjI","google_maps_url":"https://maps.google.com/?cid=3615902199587585013&g_mp=CiVnb29nbGUubWFwcy5wbGFjZXMudjEuUGxhY2VzLkdldFBsYWNlEAIYBCAA","branch_rating":4.7,"branch_review_count":209,"bayesian_adjusted_rating":4.63,"catchment_area_km2":27.6288,"observed_direct_competitor_count":23,"observed_direct_density_per_km2":0.8325,"competitor_rating_weighted_by_reviews":4.6034,"branch_rating_gap_vs_competitor_weighted":0.0966,"self_overlap_pct":91.8162,"unique_coverage_pct":8.1838,"customer_signal_score":70.94,"competitive_position_score":58.75,"network_value_score":16.67,"catchment_reach_score":8.33,"branch_health_score":45.35,"recommendation":"HOLD","decision_meaning":"Maintain and monitor; evidence is mixed or not decisive.","confidence_score":80,"confidence_level":"HIGH","main_positive_drivers":"customer review signal (+7.3); position versus local competitors (+2.2)","main_negative_drivers":"unique network coverage (-10.0); 10-minute catchment reach (-4.2)","recommendation_explanation":"HOLD: evidence is mixed. Strengths: customer review signal (+7.3); position versus local competitors (+2.2). Constraints: unique network coverage (-10.0); 10-minute catchment reach (-4.2).","decision_limitations":"External-market decision support only. Revenue, profit, rent, utilization, customer origins and exhaustive competitor census are unavailable.","source":"Google Places API (New)","retrieved_at":"2026-09-02T15:15:30+00:00"}},{"type":"Feature","id":"29","geometry":{"type":"Point","coordinates":[55.433024,25.232337]},"properties":{"branch_id":29,"branch_name":"Mirdif 35","official_city":"Dubai","official_address":"Khansaheb Mirdif 35, Level 2, Unit L2 -10, Dubai, UAE","google_place_id":"ChIJJym1WZlgXz4RDU-v4mRhckE","google_maps_url":"https://maps.google.com/?cid=4715938845738094349&g_mp=CiVnb29nbGUubWFwcy5wbGFjZXMudjEuUGxhY2VzLkdldFBsYWNlEAIYBCAA","branch_rating":4.5,"branch_review_count":817,"bayesian_adjusted_rating":4.55,"catchment_area_km2":81.3171,"observed_direct_competitor_count":66,"observed_direct_density_per_km2":0.8116,"competitor_rating_weighted_by_reviews":4.5907,"branch_rating_gap_vs_competitor_weighted":-0.0907,"self_overlap_pct":8.4067,"unique_coverage_pct":91.5933,"customer_signal_score":20.21,"competitive_position_score":38.54,"network_value_score":70.83,"catchment_reach_score":62.5,"branch_health_score":44.21,"recommendation":"HOLD","decision_meaning":"Maintain and monitor; evidence is mixed or not decisive.","confidence_score":80,"confidence_level":"HIGH","main_positive_drivers":"unique network coverage (+6.3); 10-minute catchment reach (+1.2)","main_negative_drivers":"customer review signal (-10.4); position versus local competitors (-2.9)","recommendation_explanation":"HOLD: evidence is mixed. Strengths: unique network coverage (+6.3); 10-minute catchment reach (+1.2). Constraints: customer review signal (-10.4); position versus local competitors (-2.9).","decision_limitations":"External-market decision support only. Revenue, profit, rent, utilization, customer origins and exhaustive competitor census are unavailable.","source":"Google Places API (New)","retrieved_at":"2026-09-02T15:15:30+00:00"}},{"type":"Feature","id":"34","geometry":{"type":"Point","coordinates":[54.5870107,24.4934495]},"properties":{"branch_id":34,"branch_name":"Westyas Branch","official_city":"Abu Dhabi","official_address":"Westyas Plaza, Yas Island, Abu Dhabi.","google_place_id":"ChIJURfcOI9FXj4RQMm5phqBgY8","google_maps_url":"https://maps.google.com/?cid=10340688170885695808&g_mp=CiVnb29nbGUubWFwcy5wbGFjZXMudjEuUGxhY2VzLkdldFBsYWNlEAIYBCAA","branch_rating":4.6,"branch_review_count":727,"bayesian_adjusted_rating":4.6,"catchment_area_km2":40.4379,"observed_direct_competitor_count":38,"observed_direct_density_per_km2":0.9397,"competitor_rating_weighted_by_reviews":4.7207,"branch_rating_gap_vs_competitor_weighted":-0.1207,"self_overlap_pct":66.745,"unique_coverage_pct":33.255,"customer_signal_score":60.62,"competitive_position_score":25.83,"network_value_score":33.33,"catchment_reach_score":16.67,"branch_health_score":39.34,"recommendation":"SHRINK","decision_meaning":"Priority for internal commercial review; not an automatic closure decision.","confidence_score":80,"confidence_level":"HIGH","main_positive_drivers":"customer review signal (+3.7)","main_negative_drivers":"position versus local competitors (-6.0); unique network coverage (-5.0)","recommendation_explanation":"SHRINK/REVIEW: main constraints are position versus local competitors (-6.0); unique network coverage (-5.0). Check revenue, utilization and lease data before any action.","decision_limitations":"External-market decision support only. Revenue, profit, rent, utilization, customer origins and exhaustive competitor census are unavailable.","source":"Google Places API (New)","retrieved_at":"2026-09-02T15:15:30+00:00"}},{"type":"Feature","id":"44","geometry":{"type":"Point","coordinates":[54.5403604,24.3663809]},"properties":{"branch_id":44,"branch_name":"Mohammed Bin Zayed City","official_city":"Abu Dhabi","official_address":"Villa No: 5 69 Al Raqi St - Abu Dhabi, UAE","google_place_id":"ChIJ1acVeH1HXj4RSli59C2hk2k","google_maps_url":"https://maps.google.com/?cid=7607601414310287434&g_mp=CiVnb29nbGUubWFwcy5wbGFjZXMudjEuUGxhY2VzLkdldFBsYWNlEAIYBCAA","branch_rating":4.4,"branch_review_count":831,"bayesian_adjusted_rating":4.5,"catchment_area_km2":84.3407,"observed_direct_competitor_count":88,"observed_direct_density_per_km2":1.0434,"competitor_rating_weighted_by_reviews":4.5697,"branch_rating_gap_vs_competitor_weighted":-0.1697,"self_overlap_pct":40.5389,"unique_coverage_pct":59.4611,"customer_signal_score":11.46,"competitive_position_score":20.21,"network_value_score":54.17,"catchment_reach_score":75.0,"branch_health_score":32.81,"recommendation":"HOLD","decision_meaning":"Maintain and monitor; evidence is mixed or not decisive.","confidence_score":80,"confidence_level":"HIGH","main_positive_drivers":"10-minute catchment reach (+2.5); unique network coverage (+1.2)","main_negative_drivers":"customer review signal (-13.5); position versus local competitors (-7.4)","recommendation_explanation":"HOLD: evidence is mixed. Strengths: 10-minute catchment reach (+2.5); unique network coverage (+1.2). Constraints: customer review signal (-13.5); position versus local competitors (-7.4).","decision_limitations":"External-market decision support only. Revenue, profit, rent, utilization, customer origins and exhaustive competitor census are unavailable.","source":"Google Places API (New)","retrieved_at":"2026-09-02T15:15:30+00:00"}},{"type":"Feature","id":"45","geometry":{"type":"Point","coordinates":[54.4903463,24.4151334]},"properties":{"branch_id":45,"branch_name":"Al Maqta","official_city":"Abu Dhabi","official_address":"Opposite Fairmont Bab Al Bahr - Villa number: 31 - 2 Al Khor St - Al Maqta' - Abu Dhabi","google_place_id":"ChIJIcgTO9ZDXj4RbWXJ_yrpjuM","google_maps_url":"https://maps.google.com/?cid=16397299664191841645&g_mp=CiVnb29nbGUubWFwcy5wbGFjZXMudjEuUGxhY2VzLkdldFBsYWNlEAIYBCAA","branch_rating":4.6,"branch_review_count":1288,"bayesian_adjusted_rating":4.6,"catchment_area_km2":67.0417,"observed_direct_competitor_count":100,"observed_direct_density_per_km2":1.4916,"competitor_rating_weighted_by_reviews":4.5109,"branch_rating_gap_vs_competitor_weighted":0.0891,"self_overlap_pct":95.1914,"unique_coverage_pct":4.8086,"customer_signal_score":41.46,"competitive_position_score":42.92,"network_value_score":8.33,"catchment_reach_score":45.83,"branch_health_score":32.32,"recommendation":"SHRINK","decision_meaning":"Priority for internal commercial review; not an automatic closure decision.","confidence_score":80,"confidence_level":"HIGH","main_positive_drivers":"no above-network signal","main_negative_drivers":"unique network coverage (-12.5); customer review signal (-3.0)","recommendation_explanation":"SHRINK/REVIEW: main constraints are unique network coverage (-12.5); customer review signal (-3.0). Check revenue, utilization and lease data before any action.","decision_limitations":"External-market decision support only. Revenue, profit, rent, utilization, customer origins and exhaustive competitor census are unavailable.","source":"Google Places API (New)","retrieved_at":"2026-09-02T15:15:30+00:00"}},{"type":"Feature","id":"40","geometry":{"type":"Point","coordinates":[54.3737489,24.4730534]},"properties":{"branch_id":40,"branch_name":"Khaleej Al Arabi","official_city":"Abu Dhabi","official_address":"Opposite Al Bateen Gardens, Next to Mubarak Bin Muhamad School, Khaleej Al Arabi Street, Between Al Falah and Defence Road, Abu Dhabi, UAE.","google_place_id":"ChIJ7Q7KjQNmXj4ROEhXBTwMTWk","google_maps_url":"https://maps.google.com/?cid=7587734399116331064&g_mp=Cidnb29nbGUubWFwcy5wbGFjZXMudjEuUGxhY2VzLlNlYXJjaFRleHQQAhgEIAA","branch_rating":4.6,"branch_review_count":1737,"bayesian_adjusted_rating":4.6,"catchment_area_km2":81.6967,"observed_direct_competitor_count":144,"observed_direct_density_per_km2":1.7626,"competitor_rating_weighted_by_reviews":4.6285,"branch_rating_gap_vs_competitor_weighted":-0.0285,"self_overlap_pct":91.589,"unique_coverage_pct":8.411,"customer_signal_score":36.46,"competitive_position_score":23.54,"network_value_score":20.83,"catchment_reach_score":66.67,"branch_health_score":31.56,"recommendation":"SHRINK","decision_meaning":"Priority for internal commercial review; not an automatic closure decision.","confidence_score":80,"confidence_level":"HIGH","main_positive_drivers":"10-minute catchment reach (+1.7)","main_negative_drivers":"unique network coverage (-8.7); position versus local competitors (-6.6)","recommendation_explanation":"SHRINK/REVIEW: main constraints are unique network coverage (-8.7); position versus local competitors (-6.6). Check revenue, utilization and lease data before any action.","decision_limitations":"External-market decision support only. Revenue, profit, rent, utilization, customer origins and exhaustive competitor census are unavailable.","source":"Google Places API (New)","retrieved_at":"2026-09-02T15:15:30+00:00"}},{"type":"Feature","id":"50","geometry":{"type":"Point","coordinates":[55.4795822,25.3192517]},"properties":{"branch_id":50,"branch_name":"Al Jada","official_city":"Sharjah","official_address":"Shop No. M-18, Misk 2, Muwaileh Trading, Sharjah","google_place_id":"ChIJYcoAMNNfXz4RhygkXYRIdZk","google_maps_url":"https://maps.google.com/?cid=11057824193413654663&g_mp=CiVnb29nbGUubWFwcy5wbGFjZXMudjEuUGxhY2VzLkdldFBsYWNlEAIYBCAA","branch_rating":4.5,"branch_review_count":613,"bayesian_adjusted_rating":4.56,"catchment_area_km2":65.9891,"observed_direct_competitor_count":172,"observed_direct_density_per_km2":2.6065,"competitor_rating_weighted_by_reviews":4.5075,"branch_rating_gap_vs_competitor_weighted":-0.0075,"self_overlap_pct":81.3508,"unique_coverage_pct":18.6492,"customer_signal_score":33.75,"competitive_position_score":25.83,"network_value_score":29.17,"catchment_reach_score":41.67,"branch_health_score":31.19,"recommendation":"SHRINK","decision_meaning":"Priority for internal commercial review; not an automatic closure decision.","confidence_score":80,"confidence_level":"HIGH","main_positive_drivers":"no above-network signal","main_negative_drivers":"unique network coverage (-6.2); position versus local competitors (-6.0)","recommendation_explanation":"SHRINK/REVIEW: main constraints are unique network coverage (-6.2); position versus local competitors (-6.0). Check revenue, utilization and lease data before any action.","decision_limitations":"External-market decision support only. Revenue, profit, rent, utilization, customer origins and exhaustive competitor census are unavailable.","source":"Google Places API (New)","retrieved_at":"2026-09-02T15:15:30+00:00"}},{"type":"Feature","id":"41","geometry":{"type":"Point","coordinates":[54.5989826,24.4400318]},"properties":{"branch_id":41,"branch_name":"Khalifa City A","official_city":"Abu Dhabi","official_address":"Villa 1, Casablanca Residence, Beside Mashreq Bank, Khalifa City A, Abu Dhabi, UAE","google_place_id":"ChIJew69Lv1FXj4RjK59U-COz1k","google_maps_url":"https://maps.google.com/?cid=6471548283679256204&g_mp=CiVnb29nbGUubWFwcy5wbGFjZXMudjEuUGxhY2VzLkdldFBsYWNlEAIYBCAA","branch_rating":4.5,"branch_review_count":2453,"bayesian_adjusted_rating":4.53,"catchment_area_km2":56.4222,"observed_direct_competitor_count":73,"observed_direct_density_per_km2":1.2938,"competitor_rating_weighted_by_reviews":4.5301,"branch_rating_gap_vs_competitor_weighted":-0.0301,"self_overlap_pct":51.8772,"unique_coverage_pct":48.1228,"customer_signal_score":16.46,"competitive_position_score":28.12,"network_value_score":41.67,"catchment_reach_score":25.0,"branch_health_score":27.79,"recommendation":"SHRINK","decision_meaning":"Priority for internal commercial review; not an automatic closure decision.","confidence_score":80,"confidence_level":"HIGH","main_positive_drivers":"no above-network signal","main_negative_drivers":"customer review signal (-11.7); position versus local competitors (-5.5)","recommendation_explanation":"SHRINK/REVIEW: main constraints are customer review signal (-11.7); position versus local competitors (-5.5). Check revenue, utilization and lease data before any action.","decision_limitations":"External-market decision support only. Revenue, profit, rent, utilization, customer origins and exhaustive competitor census are unavailable.","source":"Google Places API (New)","retrieved_at":"2026-09-02T15:15:30+00:00"}}]}