{"type":"FeatureCollection","features":[{"type":"Feature","id":"GROW-022","geometry":{"type":"Point","coordinates":[55.29789647608391,25.268386265037847]},"properties":{"shortlist_rank":1,"cluster_id":"GROW-022","best_h3_cell":"8743acd99ffffff","candidate_label":"Search area near DoubleTree by Hilton Dubai M Square Hotel & Residences","sanity_adjusted_score":84.48,"cluster_priority_score":88.48,"opportunity_score":92.48,"estimated_population_2025_cell":21169.76,"grow_cell_count":395,"coverage_gap_pct":100.0,"nearest_branch_name":"City Walk","nearest_branch_distance_km":8.14,"observed_competitors_within_3km":2,"observed_direct_competitors_within_3km":0,"confidence_score":70,"confidence_level":"MEDIUM","sanity_status":"SHORTLIST_AFTER_SPLIT","sanity_flags":"BROAD_CLUSTER_REQUIRES_SUBMARKET_SPLIT;NO_DIRECT_COMPETITOR_OBSERVATIONS","candidate_type":"H3 SEARCH AREA — NOT A FINAL STORE SITE","required_next_checks":"Verify suitable retail unit, rent, footfall, income/spend, female target demand, full competitor inventory, live travel times and cannibalization before investment."}},{"type":"Feature","id":"GROW-005","geometry":{"type":"Point","coordinates":[54.37444944565229,24.5283275233625]},"properties":{"shortlist_rank":2,"cluster_id":"GROW-005","best_h3_cell":"8743a0353ffffff","candidate_label":"Search area near BE RELAX SPA - L.L.C","sanity_adjusted_score":84.07,"cluster_priority_score":84.07,"opportunity_score":86.87,"estimated_population_2025_cell":7916.46,"grow_cell_count":10,"coverage_gap_pct":92.9,"nearest_branch_name":"Delma","nearest_branch_distance_km":6.794,"observed_competitors_within_3km":1,"observed_direct_competitors_within_3km":0,"confidence_score":70,"confidence_level":"MEDIUM","sanity_status":"SHORTLIST","sanity_flags":"NO_DIRECT_COMPETITOR_OBSERVATIONS","candidate_type":"H3 SEARCH AREA — NOT A FINAL STORE SITE","required_next_checks":"Verify suitable retail unit, rent, footfall, income/spend, female target demand, full competitor inventory, live travel times and cannibalization before investment."}},{"type":"Feature","id":"GROW-006","geometry":{"type":"Point","coordinates":[54.531889838722975,24.44799137787295]},"properties":{"shortlist_rank":3,"cluster_id":"GROW-006","best_h3_cell":"8743a02ecffffff","candidate_label":"Search area near Massage Relax Olivia Lounge","sanity_adjusted_score":82.48,"cluster_priority_score":82.48,"opportunity_score":83.88,"estimated_population_2025_cell":2394.45,"grow_cell_count":4,"coverage_gap_pct":100.0,"nearest_branch_name":"Al Maqta","nearest_branch_distance_km":5.535,"observed_competitors_within_3km":1,"observed_direct_competitors_within_3km":0,"confidence_score":70,"confidence_level":"MEDIUM","sanity_status":"SHORTLIST","sanity_flags":"NO_DIRECT_COMPETITOR_OBSERVATIONS","candidate_type":"H3 SEARCH AREA — NOT A FINAL STORE SITE","required_next_checks":"Verify suitable retail unit, rent, footfall, income/spend, female target demand, full competitor inventory, live travel times and cannibalization before investment."}},{"type":"Feature","id":"GROW-035","geometry":{"type":"Point","coordinates":[54.70720463792458,24.378899062622512]},"properties":{"shortlist_rank":4,"cluster_id":"GROW-035","best_h3_cell":"8743a3968ffffff","candidate_label":"Search area near OMBRÉ SALON صالون أومبري","sanity_adjusted_score":81.3,"cluster_priority_score":81.3,"opportunity_score":83.46,"estimated_population_2025_cell":13106.07,"grow_cell_count":28,"coverage_gap_pct":100.0,"nearest_branch_name":"Al Falah","nearest_branch_distance_km":7.84,"observed_competitors_within_3km":3,"observed_direct_competitors_within_3km":3,"confidence_score":70,"confidence_level":"MEDIUM","sanity_status":"SHORTLIST","sanity_flags":"NONE","candidate_type":"H3 SEARCH AREA — NOT A FINAL STORE SITE","required_next_checks":"Verify suitable retail unit, rent, footfall, income/spend, female target demand, full competitor inventory, live travel times and cannibalization before investment."}},{"type":"Feature","id":"GROW-116","geometry":{"type":"Point","coordinates":[55.96786850194727,25.81995654012829]},"properties":{"shortlist_rank":5,"cluster_id":"GROW-116","best_h3_cell":"8743acae0ffffff","candidate_label":"Search area near purple crystal massage","sanity_adjusted_score":79.56,"cluster_priority_score":83.56,"opportunity_score":86.51,"estimated_population_2025_cell":4139.91,"grow_cell_count":108,"coverage_gap_pct":100.0,"nearest_branch_name":"Ras Al Khaimah","nearest_branch_distance_km":8.998,"observed_competitors_within_3km":1,"observed_direct_competitors_within_3km":0,"confidence_score":70,"confidence_level":"MEDIUM","sanity_status":"SHORTLIST_AFTER_SPLIT","sanity_flags":"BROAD_CLUSTER_REQUIRES_SUBMARKET_SPLIT;NO_DIRECT_COMPETITOR_OBSERVATIONS","candidate_type":"H3 SEARCH AREA — NOT A FINAL STORE SITE","required_next_checks":"Verify suitable retail unit, rent, footfall, income/spend, female target demand, full competitor inventory, live travel times and cannibalization before investment."}},{"type":"Feature","id":"GROW-034","geometry":{"type":"Point","coordinates":[55.212869798117005,25.16996064880569]},"properties":{"shortlist_rank":6,"cluster_id":"GROW-034","best_h3_cell":"8743a1362ffffff","candidate_label":"Search area near Yinyang Connection Spa","sanity_adjusted_score":77.31,"cluster_priority_score":77.31,"opportunity_score":78.06,"estimated_population_2025_cell":13679.38,"grow_cell_count":2,"coverage_gap_pct":80.72,"nearest_branch_name":"City Walk","nearest_branch_distance_km":6.242,"observed_competitors_within_3km":35,"observed_direct_competitors_within_3km":29,"confidence_score":70,"confidence_level":"MEDIUM","sanity_status":"SHORTLIST","sanity_flags":"NONE","candidate_type":"H3 SEARCH AREA — NOT A FINAL STORE SITE","required_next_checks":"Verify suitable retail unit, rent, footfall, income/spend, female target demand, full competitor inventory, live travel times and cannibalization before investment."}},{"type":"Feature","id":"GROW-112","geometry":{"type":"Point","coordinates":[56.349420231374665,25.036670979737337]},"properties":{"shortlist_rank":7,"cluster_id":"GROW-112","best_h3_cell":"8743a8d0dffffff","candidate_label":"Search area near 25.0367, 56.3494","sanity_adjusted_score":74.86,"cluster_priority_score":82.86,"opportunity_score":84.93,"estimated_population_2025_cell":27674.37,"grow_cell_count":24,"coverage_gap_pct":100.0,"nearest_branch_name":"Al Taif Mall","nearest_branch_distance_km":9.606,"observed_competitors_within_3km":0,"observed_direct_competitors_within_3km":0,"confidence_score":70,"confidence_level":"MEDIUM","sanity_status":"REVIEW_DATA_GAP","sanity_flags":"NO_LOCAL_COMPETITOR_OBSERVATIONS;NO_NAMED_MARKET_ANCHOR","candidate_type":"H3 SEARCH AREA — NOT A FINAL STORE SITE","required_next_checks":"Verify suitable retail unit, rent, footfall, income/spend, female target demand, full competitor inventory, live travel times and cannibalization before investment."}},{"type":"Feature","id":"GROW-111","geometry":{"type":"Point","coordinates":[56.35155168467461,25.3980176524145]},"properties":{"shortlist_rank":8,"cluster_id":"GROW-111","best_h3_cell":"8743a8923ffffff","candidate_label":"Search area near 25.3980, 56.3516","sanity_adjusted_score":74.84,"cluster_priority_score":82.84,"opportunity_score":84.83,"estimated_population_2025_cell":25302.94,"grow_cell_count":35,"coverage_gap_pct":100.0,"nearest_branch_name":"Al Taif Mall","nearest_branch_distance_km":30.997,"observed_competitors_within_3km":0,"observed_direct_competitors_within_3km":0,"confidence_score":70,"confidence_level":"MEDIUM","sanity_status":"REVIEW_DATA_GAP","sanity_flags":"NO_LOCAL_COMPETITOR_OBSERVATIONS;NO_NAMED_MARKET_ANCHOR","candidate_type":"H3 SEARCH AREA — NOT A FINAL STORE SITE","required_next_checks":"Verify suitable retail unit, rent, footfall, income/spend, female target demand, full competitor inventory, live travel times and cannibalization before investment."}},{"type":"Feature","id":"GROW-153","geometry":{"type":"Point","coordinates":[56.12002876463003,24.80711459829465]},"properties":{"shortlist_rank":9,"cluster_id":"GROW-153","best_h3_cell":"8743aeae6ffffff","candidate_label":"Search area near 24.8071, 56.1200","sanity_adjusted_score":74.48,"cluster_priority_score":82.48,"opportunity_score":83.69,"estimated_population_2025_cell":14188.11,"grow_cell_count":20,"coverage_gap_pct":100.0,"nearest_branch_name":"Al Taif Mall","nearest_branch_distance_km":40.507,"observed_competitors_within_3km":0,"observed_direct_competitors_within_3km":0,"confidence_score":70,"confidence_level":"MEDIUM","sanity_status":"REVIEW_DATA_GAP","sanity_flags":"NO_LOCAL_COMPETITOR_OBSERVATIONS;NO_NAMED_MARKET_ANCHOR","candidate_type":"H3 SEARCH AREA — NOT A FINAL STORE SITE","required_next_checks":"Verify suitable retail unit, rent, footfall, income/spend, female target demand, full competitor inventory, live travel times and cannibalization before investment."}},{"type":"Feature","id":"GROW-122","geometry":{"type":"Point","coordinates":[56.27273151918336,25.621137951746245]},"properties":{"shortlist_rank":10,"cluster_id":"GROW-122","best_h3_cell":"8743ac272ffffff","candidate_label":"Search area near 25.6211, 56.2727","sanity_adjusted_score":74.11,"cluster_priority_score":82.11,"opportunity_score":83.7,"estimated_population_2025_cell":14584.91,"grow_cell_count":12,"coverage_gap_pct":100.0,"nearest_branch_name":"Ras Al Khaimah","nearest_branch_distance_km":38.217,"observed_competitors_within_3km":0,"observed_direct_competitors_within_3km":0,"confidence_score":70,"confidence_level":"MEDIUM","sanity_status":"REVIEW_DATA_GAP","sanity_flags":"NO_LOCAL_COMPETITOR_OBSERVATIONS;NO_NAMED_MARKET_ANCHOR","candidate_type":"H3 SEARCH AREA — NOT A FINAL STORE SITE","required_next_checks":"Verify suitable retail unit, rent, footfall, income/spend, female target demand, full competitor inventory, live travel times and cannibalization before investment."}}]}